{
  "type": "FeatureCollection",
  "features": [
    {
      "type": "Feature",
      "properties": {
        "norad_id": 36036,
        "name": "SMOS",
        "group": "resource",
        "lat": -16.629088183769937,
        "lon": -14.695290652359994,
        "alt_km": 764.5161050939014,
        "timestamp": "2025-12-08T17:43:04.550726+00:00",
        "meta_object_name": "SMOS",
        "meta_object_id": "2009-059A",
        "meta_epoch": "2025-12-08T06:47:58.675200",
        "meta_mean_motion": 14.39735674,
        "meta_eccentricity": 0.00011141,
        "meta_inclination": 98.4383,
        "meta_ra_of_asc_node": 167.3978,
        "meta_arg_of_pericenter": 85.3107,
        "meta_mean_anomaly": 274.8208,
        "meta_ephemeris_type": 0,
        "meta_classification_type": "U",
        "meta_norad_cat_id": 36036,
        "meta_element_set_no": 999,
        "meta_rev_at_epoch": 84598,
        "meta_bstar": 0.00025754552,
        "meta_mean_motion_dot": 7.63e-06,
        "meta_mean_motion_ddot": 0,
        "tle_line1": "1 36036U 09059A   25342.28331800  .00000763  00000+0  25755-3 0  9994",
        "tle_line2": "2 36036  98.4383 167.3978 0001114  85.3107 274.8208 14.39735674845981"
      },
      "geometry": {
        "type": "Point",
        "coordinates": [
          -14.695290652359994,
          -16.629088183769937
        ]
      }
    },
    {
      "type": "Feature",
      "properties": {
        "norad_id": 36110,
        "name": "YAOGAN-7",
        "group": "resource",
        "lat": -14.981181435351399,
        "lon": 42.34424370524968,
        "alt_km": 644.0829519647295,
        "timestamp": "2025-12-08T17:43:04.550737+00:00",
        "meta_object_name": "YAOGAN-7",
        "meta_object_id": "2009-069A",
        "meta_epoch": "2025-12-08T05:27:36.490752",
        "meta_mean_motion": 14.77722582,
        "meta_eccentricity": 0.00235226,
        "meta_inclination": 98.0303,
        "meta_ra_of_asc_node": 224.0005,
        "meta_arg_of_pericenter": 296.6511,
        "meta_mean_anomaly": 63.229,
        "meta_ephemeris_type": 0,
        "meta_classification_type": "U",
        "meta_norad_cat_id": 36110,
        "meta_element_set_no": 999,
        "meta_rev_at_epoch": 86142,
        "meta_bstar": 0.00019335483,
        "meta_mean_motion_dot": 1.339e-05,
        "meta_mean_motion_ddot": 0,
        "tle_line1": "1 36110U 09069A   25342.22750568  .00001339  00000+0  19335-3 0  9995",
        "tle_line2": "2 36110  98.0303 224.0005 0023522 296.6511  63.2290 14.77722582861421"
      },
      "geometry": {
        "type": "Point",
        "coordinates": [
          42.34424370524968,
          -14.981181435351399
        ]
      }
    },
    {
      "type": "Feature",
      "properties": {
        "norad_id": 36605,
        "name": "TANDEM-X",
        "group": "resource",
        "lat": -25.25413216399727,
        "lon": 164.6410425212229,
        "alt_km": 514.7385459532998,
        "timestamp": "2025-12-08T17:43:04.550748+00:00",
        "meta_object_name": "TANDEM-X",
        "meta_object_id": "2010-030A",
        "meta_epoch": "2025-12-07T13:56:33.880416",
        "meta_mean_motion": 15.19154618,
        "meta_eccentricity": 0.00020407,
        "meta_inclination": 97.4453,
        "meta_ra_of_asc_node": 347.0372,
        "meta_arg_of_pericenter": 90.9544,
        "meta_mean_anomaly": 269.1924,
        "meta_ephemeris_type": 0,
        "meta_classification_type": "U",
        "meta_norad_cat_id": 36605,
        "meta_element_set_no": 999,
        "meta_rev_at_epoch": 85755,
        "meta_bstar": 0.00016903556,
        "meta_mean_motion_dot": 3.485e-05,
        "meta_mean_motion_ddot": 0,
        "tle_line1": "1 36605U 10030A   25341.58094769  .00003485  00000+0  16904-3 0  9999",
        "tle_line2": "2 36605  97.4453 347.0372 0002040  90.9544 269.1924 15.19154618857551"
      },
      "geometry": {
        "type": "Point",
        "coordinates": [
          164.6410425212229,
          -25.25413216399727
        ]
      }
    },
    {
      "type": "Feature",
      "properties": {
        "norad_id": 36795,
        "name": "CARTOSAT-2B",
        "group": "resource",
        "lat": 70.46583042724527,
        "lon": -125.41761410643954,
        "alt_km": 617.7807354836623,
        "timestamp": "2025-12-08T17:43:04.550759+00:00",
        "meta_object_name": "CARTOSAT-2B",
        "meta_object_id": "2010-035A",
        "meta_epoch": "2025-12-08T05:51:53.340768",
        "meta_mean_motion": 14.78779861,
        "meta_eccentricity": 0.00129099,
        "meta_inclination": 97.7858,
        "meta_ra_of_asc_node": 31.4208,
        "meta_arg_of_pericenter": 90.9112,
        "meta_mean_anomaly": 269.3579,
        "meta_ephemeris_type": 0,
        "meta_classification_type": "U",
        "meta_norad_cat_id": 36795,
        "meta_element_set_no": 999,
        "meta_rev_at_epoch": 83163,
        "meta_bstar": 0.00020823065,
        "meta_mean_motion_dot": 1.482e-05,
        "meta_mean_motion_ddot": 0,
        "tle_line1": "1 36795U 10035A   25342.24436737  .00001482  00000+0  20823-3 0  9993",
        "tle_line2": "2 36795  97.7858  31.4208 0012909  90.9112 269.3579 14.78779861831637"
      },
      "geometry": {
        "type": "Point",
        "coordinates": [
          -125.41761410643954,
          70.46583042724527
        ]
      }
    },
    {
      "type": "Feature",
      "properties": {
        "norad_id": 36834,
        "name": "YAOGAN-10",
        "group": "resource",
        "lat": 73.81424976767248,
        "lon": -148.77398986610666,
        "alt_km": 606.8457806073102,
        "timestamp": "2025-12-08T17:43:04.550770+00:00",
        "meta_object_name": "YAOGAN-10",
        "meta_object_id": "2010-038A",
        "meta_epoch": "2025-12-08T07:35:30.386688",
        "meta_mean_motion": 14.84581928,
        "meta_eccentricity": 0.00015091,
        "meta_inclination": 97.9143,
        "meta_ra_of_asc_node": 2.1699,
        "meta_arg_of_pericenter": 84.8067,
        "meta_mean_anomaly": 285.7319,
        "meta_ephemeris_type": 0,
        "meta_classification_type": "U",
        "meta_norad_cat_id": 36834,
        "meta_element_set_no": 999,
        "meta_rev_at_epoch": 82888,
        "meta_bstar": 0.00034753657,
        "meta_mean_motion_dot": 2.881e-05,
        "meta_mean_motion_ddot": 0,
        "tle_line1": "1 36834U 10038A   25342.31632392  .00002881  00000+0  34754-3 0  9995",
        "tle_line2": "2 36834  97.9143   2.1699 0001509  84.8067 285.7319 14.84581928828883"
      },
      "geometry": {
        "type": "Point",
        "coordinates": [
          -148.77398986610666,
          73.81424976767248
        ]
      }
    },
    {
      "type": "Feature",
      "properties": {
        "norad_id": 37216,
        "name": "COSMO-SKYMED 4",
        "group": "resource",
        "lat": 61.21171756626316,
        "lon": 149.52038450194908,
        "alt_km": 615.6614613362817,
        "timestamp": "2025-12-08T17:43:04.550781+00:00",
        "meta_object_name": "COSMO-SKYMED 4",
        "meta_object_id": "2010-060A",
        "meta_epoch": "2025-12-08T06:05:47.477472",
        "meta_mean_motion": 14.82160726,
        "meta_eccentricity": 0.00013658,
        "meta_inclination": 97.8813,
        "meta_ra_of_asc_node": 163.645,
        "meta_arg_of_pericenter": 82.9679,
        "meta_mean_anomaly": 277.169,
        "meta_ephemeris_type": 0,
        "meta_classification_type": "U",
        "meta_norad_cat_id": 37216,
        "meta_element_set_no": 999,
        "meta_rev_at_epoch": 81628,
        "meta_bstar": 0.00014414357,
        "meta_mean_motion_dot": 1.096e-05,
        "meta_mean_motion_ddot": 0,
        "tle_line1": "1 37216U 10060A   25342.25402173  .00001096  00000+0  14414-3 0  9998",
        "tle_line2": "2 37216  97.8813 163.6450 0001365  82.9679 277.1690 14.82160726816282"
      },
      "geometry": {
        "type": "Point",
        "coordinates": [
          149.52038450194908,
          61.21171756626316
        ]
      }
    },
    {
      "type": "Feature",
      "properties": {
        "norad_id": 37387,
        "name": "RESOURCESAT-2",
        "group": "resource",
        "lat": 1.5674778809626377,
        "lon": -133.4495317983228,
        "alt_km": 825.4357545372495,
        "timestamp": "2025-12-08T17:43:04.550792+00:00",
        "meta_object_name": "RESOURCESAT-2",
        "meta_object_id": "2011-015A",
        "meta_epoch": "2025-12-08T06:44:50.218656",
        "meta_mean_motion": 14.21594742,
        "meta_eccentricity": 0.00066271,
        "meta_inclination": 98.7882,
        "meta_ra_of_asc_node": 45.8529,
        "meta_arg_of_pericenter": 54.1625,
        "meta_mean_anomaly": 306.0167,
        "meta_ephemeris_type": 0,
        "meta_classification_type": "U",
        "meta_norad_cat_id": 37387,
        "meta_element_set_no": 999,
        "meta_rev_at_epoch": 75905,
        "meta_bstar": 0.00016802751,
        "meta_mean_motion_dot": 3.24e-06,
        "meta_mean_motion_ddot": 0,
        "tle_line1": "1 37387U 11015A   25342.28113679  .00000324  00000+0  16803-3 0  9998",
        "tle_line2": "2 37387  98.7882  45.8529 0006627  54.1625 306.0167 14.21594742759057"
      },
      "geometry": {
        "type": "Point",
        "coordinates": [
          -133.4495317983228,
          1.5674778809626377
        ]
      }
    }
  ]
}